[{"OBJECT_NAME":"SCS-01 M","OBJECT_ID":"2025-100M","EPOCH":"2026-03-09T23:50:15.541152","MEAN_MOTION":15.31880861,"ECCENTRICITY":0.00078021,"INCLINATION":97.3725,"RA_OF_ASC_NODE":145.6908,"ARG_OF_PERICENTER":292.3826,"MEAN_ANOMALY":67.6588,"EPHEMERIS_TYPE":0,"CLASSIFICATION_TYPE":"U","NORAD_CAT_ID":63993,"ELEMENT_SET_NO":999,"REV_AT_EPOCH":4565,"BSTAR":0.0012010051,"MEAN_MOTION_DOT":0.00037061,"MEAN_MOTION_DDOT":0},{"OBJECT_NAME":"STARLINK-35031","OBJECT_ID":"2025-192A","EPOCH":"2026-03-09T17:39:49.785696","MEAN_MOTION":15.30195571,"ECCENTRICITY":8.13e-5,"INCLINATION":53.16,"RA_OF_ASC_NODE":242.6371,"ARG_OF_PERICENTER":46.8896,"MEAN_ANOMALY":313.2172,"EPHEMERIS_TYPE":0,"CLASSIFICATION_TYPE":"U","NORAD_CAT_ID":65404,"ELEMENT_SET_NO":999,"REV_AT_EPOCH":2924,"BSTAR":0.0010727259,"MEAN_MOTION_DOT":0.00031542,"MEAN_MOTION_DDOT":0}]
